NORAD_CAT_ID,OBJECT_NAME,OBJECT_TYPE,EPOCH,MEAN_MOTION,ECCENTRICITY,INCLINATION,RA_OF_ASC_NODE,ARG_OF_PERICENTER,MEAN_ANOMALY,BSTAR,MEAN_MOTION_DOT,MEAN_MOTION_DDOT,TLE_LINE0,TLE_LINE1,TLE_LINE2,SEMIMAJOR_AXIS,PERIOD,APOGEE,PERIGEE,DECAYED
53964.0,STARLINK-4633,PAYLOAD,2024-02-16 21:20:47,15.08831214,0.000165,53.2214,359.2423,99.9348,260.1831,0.0001252,1.705e-05,0.0,0 STARLINK-4633,1 53964U 22125A   24047.88944041  .00001705  00000-0  12520-3 0  9990,2 53964  53.2214 359.2423 0001650  99.9348 260.1831 15.08831214 75824,6917.907,95.438,540.914,538.631,0.0
53964.0,STARLINK-4633,PAYLOAD,2024-02-17 02:06:56,15.08833912,0.0001661,53.2213,358.3499,95.1586,264.9596,0.00012762,1.743e-05,0.0,0 STARLINK-4633,1 53964U 22125A   24048.08815949  .00001743  00000-0  12762-3 0  9997,2 53964  53.2213 358.3499 0001661  95.1586 264.9596 15.08833912 75928,6917.899,95.438,540.913,538.615,0.0
53964.0,STARLINK-4633,PAYLOAD,2024-02-17 06:53:05,15.08842204,0.0001507,53.2188,357.4489,94.5446,265.5718,0.00011843,1.597e-05,0.0,0 STARLINK-4633,1 53964U 22125A   24048.28687325  .00001597  00000-0  11843-3 0  9990,2 53964  53.2188 357.4489 0001507  94.5446 265.5718 15.08842204 75955,6917.874,95.437,540.781,538.696,0.0
53964.0,STARLINK-4633,PAYLOAD,2024-02-17 13:14:39,15.08832835,0.0001586,53.2193,356.2609,85.1689,274.9484,7.6121e-07,-2.76e-06,0.0,0 STARLINK-4633,1 53964U 22125A   24048.55184320 -.00000276  00000-0  76121-6 0  9994,2 53964  53.2193 356.2609 0001586  85.1689 274.9484 15.08832835 75924,6917.902,95.438,540.864,538.67,0.0
53964.0,STARLINK-4633,PAYLOAD,2024-02-18 01:57:43,15.08847304,0.0001365,53.2182,353.8817,85.4343,274.6805,-4.57e-05,-1.015e-05,0.0,0 STARLINK-4633,1 53964U 22125A   24049.08175720 -.00001015  00000-0 -45700-4 0  9997,2 53964  53.2182 353.8817 0001365  85.4343 274.6805 15.08847304 76079,6917.858,95.437,540.667,538.779,0.0
53964.0,STARLINK-4633,PAYLOAD,2024-02-18 06:43:52,15.08857171,0.0001518,53.2183,352.9921,121.6355,238.4786,0.00011955,1.616e-05,0.0,0 STARLINK-4633,1 53964U 22125A   24049.28046398  .00001616  00000-0  11955-3 0  9996,2 53964  53.2183 352.9921 0001518 121.6355 238.4786 15.08857171 76105,6917.828,95.436,540.743,538.643,0.0
53964.0,STARLINK-4633,PAYLOAD,2024-02-18 13:05:25,15.08852959,0.0001381,53.2184,351.7984,78.3752,281.7395,3.5941e-05,2.84e-06,0.0,0 STARLINK-4633,1 53964U 22125A   24049.54542871  .00000284  00000-0  35941-4 0  9994,2 53964  53.2184 351.7984 0001381  78.3752 281.7395 15.08852959 76071,6917.841,95.437,540.661,538.75,0.0
53964.0,STARLINK-4633,PAYLOAD,2024-02-18 19:26:58,15.08836511,0.0001802,53.2203,350.6146,84.5209,275.5988,0.00010878,1.443e-05,0.0,0 STARLINK-4633,1 53964U 22125A   24049.81039982  .00001443  00000-0  10878-3 0  9997,2 53964  53.2203 350.6146 0001802  84.5209 275.5988 15.08836511 76182,6917.891,95.438,541.003,538.509,0.0
53964.0,STARLINK-4633,PAYLOAD,2024-02-19 04:59:17,15.08844652,0.0001906,53.2208,348.8285,92.4204,267.7007,8.9596e-05,1.138e-05,0.0,0 STARLINK-4633,1 53964U 22125A   24050.20783569  .00001138  00000-0  89596-4 0  9994,2 53964  53.2208 348.8285 0001906  92.4204 267.7007 15.08844652 76245,6917.866,95.437,541.05,538.413,0.0
53964.0,STARLINK-4633,PAYLOAD,2024-02-19 12:56:13,15.08833692,0.0001609,53.219,347.341,80.46,279.6574,-6.7793e-05,-1.367e-05,0.0,0 STARLINK-4633,1 53964U 22125A   24050.53904642 -.00001367  00000-0 -67793-4 0  9998,2 53964  53.2190 347.3410 0001609  80.4600 279.6574 15.08833692 76227,6917.9,95.438,540.878,538.652,0.0
53964.0,STARLINK-4633,PAYLOAD,2024-02-19 19:17:46,15.08826228,0.0001914,53.2175,346.1511,80.7745,279.3464,2.7778e-05,1.54e-06,0.0,0 STARLINK-4633,1 53964U 22125A   24050.80401263  .00000154  00000-0  27778-4 0  9999,2 53964  53.2175 346.1511 0001914  80.7745 279.3464 15.08826228 76335,6917.922,95.438,541.112,538.463,0.0
53964.0,STARLINK-4633,PAYLOAD,2024-02-20 03:14:42,15.08836133,0.0001511,53.2188,344.6673,101.5566,258.5596,-9.9506e-05,-1.871e-05,0.0,0 STARLINK-4633,1 53964U 22125A   24051.13520969 -.00001871  00000-0 -99506-4 0  9998,2 53964  53.2188 344.6673 0001511 101.5566 258.5596 15.08836133 76383,6917.892,95.438,540.803,538.712,0.0
53964.0,STARLINK-4633,PAYLOAD,2024-02-20 12:47:00,15.08844662,0.0001822,53.2206,342.8835,90.0213,270.0988,-1.9393e-05,-5.97e-06,0.0,0 STARLINK-4633,1 53964U 22125A   24051.53264386 -.00000597  00000-0 -19393-4 0  9990,2 53964  53.2206 342.8835 0001822  90.0213 270.0988 15.08844662 76379,6917.866,95.437,540.992,538.471,0.0
53964.0,STARLINK-4633,PAYLOAD,2024-02-21 01:30:04,15.0885099,0.0001803,53.2183,340.5035,69.0837,291.0348,0.00020664,3.003e-05,0.0,0 STARLINK-4633,1 53964U 22125A   24052.06255599  .00003003  00000-0  20664-3 0  9990,2 53964  53.2183 340.5035 0001803  69.0837 291.0348 15.08850990 76528,6917.847,95.437,540.959,538.465,0.0
53964.0,STARLINK-4633,PAYLOAD,2024-02-21 12:37:46,15.08850088,0.000156,53.2168,338.4233,74.1734,285.943,0.00021582,3.149e-05,0.0,0 STARLINK-4633,1 53964U 22125A   24052.52623802  .00003149  00000-0  21582-3 0  9998,2 53964  53.2168 338.4233 0001560  74.1734 285.9430 15.08850088 76599,6917.85,95.437,540.794,538.635,0.0
53964.0,STARLINK-4633,PAYLOAD,2024-02-21 22:10:06,15.08839089,0.0001761,53.2175,336.6375,91.3432,268.7762,0.00018051,2.586e-05,0.0,0 STARLINK-4633,1 53964U 22125A   24052.92368462  .00002586  00000-0  18051-3 0  9991,2 53964  53.2175 336.6375 0001761  91.3432 268.7762 15.08839089 76587,6917.883,95.438,540.966,538.53,0.0
53964.0,STARLINK-4633,PAYLOAD,2024-02-22 01:20:52,15.08840743,0.0001477,53.2182,336.0402,104.2002,255.9154,6.2267e-05,7.03e-06,0.0,0 STARLINK-4633,1 53964U 22125A   24053.05616272  .00000703  00000-0  62267-4 0  9999,2 53964  53.2182 336.0402 0001477 104.2002 255.9154 15.08840743 76673,6917.878,95.438,540.765,538.721,0.0
53964.0,STARLINK-4633,PAYLOAD,2024-02-22 04:31:38,15.08842643,0.0001525,53.2179,335.4443,112.1258,247.9896,8.2623e-05,1.027e-05,0.0,0 STARLINK-4633,1 53964U 22125A   24053.18864126  .00001027  00000-0  82623-4 0  9994,2 53964  53.2179 335.4443 0001525 112.1258 247.9896 15.08842643 76622,6917.872,95.437,540.792,538.682,0.0
53964.0,STARLINK-4633,PAYLOAD,2024-02-22 22:00:52,15.0884333,0.0001692,53.2186,332.172,115.1833,244.9334,-3.8382e-05,-8.99e-06,0.0,0 STARLINK-4633,1 53964U 22125A   24053.91727971 -.00000899  00000-0 -38382-4 0  9992,2 53964  53.2186 332.1720 0001692 115.1833 244.9334 15.08843330 76739,6917.87,95.437,540.906,538.565,0.0
53964.0,STARLINK-4633,PAYLOAD,2024-02-22 23:36:16,15.08846042,0.0001569,53.2189,331.875,112.7241,247.3917,5.7461e-06,-1.97e-06,0.0,0 STARLINK-4633,1 53964U 22125A   24053.98351936 -.00000197  00000-0  57461-5 0  9993,2 53964  53.2189 331.8750 0001569 112.7241 247.3917 15.08846042 76748,6917.862,95.437,540.812,538.642,0.0
53964.0,STARLINK-4633,PAYLOAD,2024-02-23 18:40:54,15.08834859,0.0001549,53.2181,328.307,111.7671,248.3486,7.7703e-05,9.49e-06,0.0,0 STARLINK-4633,1 53964U 22125A   24054.77840539  .00000949  00000-0  77703-4 0  9997,2 53964  53.2181 328.3070 0001549 111.7671 248.3486 15.08834859 76936,6917.896,95.438,540.833,538.69,0.0
53964.0,STARLINK-4633,PAYLOAD,2024-02-23 21:51:40,15.08836623,0.0001525,53.2179,327.7123,113.3747,246.7406,8.7953e-05,1.112e-05,0.0,0 STARLINK-4633,1 53964U 22125A   24054.91088395  .00001112  00000-0  87953-4 0  9998,2 53964  53.2179 327.7123 0001525 113.3747 246.7406 15.08836623 76880,6917.891,95.438,540.811,538.701,0.0
53964.0,STARLINK-4633,PAYLOAD,2024-02-24 10:34:45,15.08843737,0.0001333,53.2181,325.3343,90.4127,269.7018,0.00010476,1.38e-05,0.0,0 STARLINK-4633,1 53964U 22125A   24055.44080080  .00001380  00000-0  10476-3 0  9992,2 53964  53.2181 325.3343 0001333  90.4127 269.7018 15.08843737 77031,6917.869,95.437,540.656,538.812,0.0
53964.0,STARLINK-4633,PAYLOAD,2024-02-24 18:31:41,15.08839339,0.0001732,53.2194,323.8556,121.0783,239.0379,5.1529e-05,5.32e-06,0.0,0 STARLINK-4633,1 53964U 22125A   24055.77200626  .00000532  00000-0  51529-4 0  9991,2 53964  53.2194 323.8556 0001732 121.0783 239.0379 15.08839339 77084,6917.882,95.438,540.946,538.549,0.0
53964.0,STARLINK-4633,PAYLOAD,2024-02-25 10:25:32,15.08841005,0.0001776,53.2205,320.8792,105.1326,254.9862,0.00011659,1.568e-05,0.0,0 STARLINK-4633,1 53964U 22125A   24056.43440434  .00001568  00000-0  11659-3 0  9997,2 53964  53.2205 320.8792 0001776 105.1326 254.9862 15.08841005 77110,6917.877,95.437,540.971,538.514,0.0
53964.0,STARLINK-4633,PAYLOAD,2024-02-25 23:08:37,15.08842926,0.0001662,53.2206,318.5005,101.6605,258.4574,0.00010853,1.44e-05,0.0,0 STARLINK-4633,1 53964U 22125A   24056.96432373  .00001440  00000-0  10853-3 0  9992,2 53964  53.2206 318.5005 0001662 101.6605 258.4574 15.08842926 77197,6917.871,95.437,540.886,538.587,0.0
53964.0,STARLINK-4633,PAYLOAD,2024-02-26 02:19:23,15.0885145,0.000124,53.2179,317.9015,102.8111,257.302,0.00014735,2.059e-05,0.0,0 STARLINK-4633,1 53964U 22125A   24057.09679563  .00002059  00000-0  14735-3 0  9991,2 53964  53.2179 317.9015 0001240 102.8111 257.3020 15.08851450 77283,6917.845,95.437,540.568,538.853,0.0
53964.0,STARLINK-4633,PAYLOAD,2024-02-26 22:59:24,15.08842202,9.9e-05,53.2181,314.0348,119.3065,240.8027,-3.0463e-05,-7.73e-06,0.0,0 STARLINK-4633,1 53964U 22125A   24057.95792595 -.00000773  00000-0 -30463-4 0  9997,2 53964  53.2181 314.0348 0000990 119.3065 240.8027 15.08842202 77341,6917.874,95.437,540.424,539.054,0.0
53964.0,STARLINK-4633,PAYLOAD,2024-02-27 02:10:11,15.0884196,0.0001706,53.2189,313.4397,83.79,276.3286,5.7885e-05,6.33e-06,0.0,0 STARLINK-4633,1 53964U 22125A   24058.09040704  .00000633  00000-0  57885-4 0  9991,2 53964  53.2189 313.4397 0001706  83.7900 276.3286 15.08841960 77435,6917.874,95.437,540.92,538.559,0.0
53964.0,STARLINK-4633,PAYLOAD,2024-02-27 10:07:07,15.08832824,0.0001339,53.2185,311.9525,89.2991,270.8154,4.7738e-05,4.72e-06,0.0,0 STARLINK-4633,1 53964U 22125A   24058.42161156  .00000472  00000-0  47738-4 0  9990,2 53964  53.2185 311.9525 0001339  89.2991 270.8154 15.08832824 77487,6917.902,95.438,540.694,538.841,0.0
